STARLINK-36619          
1 67645U 26020AE  26049.00945472  .00255781  00000+0  15230-2 0  9990
2 67645  42.9971 261.4534 0001640 288.1771  71.8920 15.76422213  2981
ALSAT-3B                
1 67646U 26021A   26049.27338242  .00006729  00000+0  28315-3 0  9997
2 67646  97.4707 123.6939 0012308 197.4433 162.6383 15.23644771  2767
CZ-2C R/B               
1 67647U 26021B   26049.27657946  .00012179  00000+0  36749-3 0  9999
2 67647  97.6548 124.3550 0153376  78.7455 283.0975 15.23552807  2747
STARLINK-36719          
1 67648U 26022A   26049.25002315 -.00110038  00000+0 -74542-3 0  9991
2 67648  97.2830  82.2561 0001370 102.9262  49.0020 15.75219904  3763
STARLINK-36342          
1 67649U 26022B   26049.25002315 -.00065349  00000+0 -44009-3 0  9991
2 67649  97.2833  82.2580 0001247  95.7293  60.1969 15.75217677  3765
STARLINK-36703          
1 67650U 26022C   26049.25002315 -.00106257  00000+0 -71909-3 0  9996
2 67650  97.2832  82.2602 0001487 107.7970  54.1193 15.75231562  3764
STARLINK-36696          
1 67651U 26022D   26049.25002315 -.00079527  00000+0 -53697-3 0  9990
2 67651  97.2831  82.2636 0001293  85.4609  86.4719 15.75203662  3769
STARLINK-36699          
1 67652U 26022E   26049.25002315 -.00063093  00000+0 -42511-3 0  9995
2 67652  97.2832  82.2662 0001178  83.2153  92.7181 15.75198216  3763
STARLINK-36694          
1 67653U 26022F   26049.25002315 -.00067747  00000+0 -45660-3 0  9994
2 67653  97.2835  82.2717 0001099 102.9406  84.9876 15.75207452  3767
STARLINK-36620          
1 67654U 26022G   26049.25002315 -.00098041  00000+0 -66331-3 0  9994
2 67654  97.2836  82.2706 0001013  99.0639  90.8629 15.75214596  3766
STARLINK-36720          
1 67655U 26022H   26049.25002315 -.00097658  00000+0 -66026-3 0  9999
2 67655  97.2836  82.2764 0001338 113.4537  86.4695 15.75228454  3761
STARLINK-36688          
1 67656U 26022J   26049.25002315 -.00088196  00000+0 -59862-3 0  9997
2 67656  97.2836  82.2771 0002037  89.7151 114.3352 15.75107770  3762
