CCSDS_OMM_VERS = 2.0
CREATION_DATE  = 
ORIGINATOR     = 

OBJECT_NAME    = STARLINK-36619
OBJECT_ID      = 2026-020AE
CENTER_NAME    = EARTH
REF_FRAME      = TEME
TIME_SYSTEM    = UTC
MEAN_ELEMENT_THEORY = SGP/SGP4

EPOCH          = 2026-02-18T00:13:36.887808
MEAN_MOTION    = 15.76422213
ECCENTRICITY   = .00016408
INCLINATION    = 42.9971
RA_OF_ASC_NODE = 261.4534
ARG_OF_PERICENTER = 288.1771
MEAN_ANOMALY   = 71.8920

EPHEMERIS_TYPE = 0
CLASSIFICATION_TYPE = U
NORAD_CAT_ID   = 67645
ELEMENT_SET_NO = 999
REV_AT_EPOCH   = 298
BSTAR          = .152301E-2
MEAN_MOTION_DOT = .255781E-2
MEAN_MOTION_DDOT = 0

CCSDS_OMM_VERS = 2.0
CREATION_DATE  = 
ORIGINATOR     = 

OBJECT_NAME    = ALSAT-3B
OBJECT_ID      = 2026-021A
CENTER_NAME    = EARTH
REF_FRAME      = TEME
TIME_SYSTEM    = UTC
MEAN_ELEMENT_THEORY = SGP/SGP4

EPOCH          = 2026-02-18T06:33:40.241088
MEAN_MOTION    = 15.23644771
ECCENTRICITY   = .00123089
INCLINATION    = 97.4707
RA_OF_ASC_NODE = 123.6939
ARG_OF_PERICENTER = 197.4433
MEAN_ANOMALY   = 162.6383

EPHEMERIS_TYPE = 0
CLASSIFICATION_TYPE = U
NORAD_CAT_ID   = 67646
ELEMENT_SET_NO = 999
REV_AT_EPOCH   = 276
BSTAR          = .28315265E-3
MEAN_MOTION_DOT = .6729E-4
MEAN_MOTION_DDOT = 0

CCSDS_OMM_VERS = 2.0
CREATION_DATE  = 
ORIGINATOR     = 

OBJECT_NAME    = CZ-2C R/B
OBJECT_ID      = 2026-021B
CENTER_NAME    = EARTH
REF_FRAME      = TEME
TIME_SYSTEM    = UTC
MEAN_ELEMENT_THEORY = SGP/SGP4

EPOCH          = 2026-02-18T06:38:16.465344
MEAN_MOTION    = 15.23552807
ECCENTRICITY   = .01533769
INCLINATION    = 97.6548
RA_OF_ASC_NODE = 124.3550
ARG_OF_PERICENTER = 78.7455
MEAN_ANOMALY   = 283.0975

EPHEMERIS_TYPE = 0
CLASSIFICATION_TYPE = U
NORAD_CAT_ID   = 67647
ELEMENT_SET_NO = 999
REV_AT_EPOCH   = 274
BSTAR          = .36748936E-3
MEAN_MOTION_DOT = .12179E-3
MEAN_MOTION_DDOT = 0

CCSDS_OMM_VERS = 2.0
CREATION_DATE  = 
ORIGINATOR     = 

OBJECT_NAME    = STARLINK-36719
OBJECT_ID      = 2026-022A
CENTER_NAME    = EARTH
REF_FRAME      = TEME
TIME_SYSTEM    = UTC
MEAN_ELEMENT_THEORY = SGP/SGP4

EPOCH          = 2026-02-18T06:00:02.000160
MEAN_MOTION    = 15.75219904
ECCENTRICITY   = .00013703
INCLINATION    = 97.2830
RA_OF_ASC_NODE = 82.2561
ARG_OF_PERICENTER = 102.9262
MEAN_ANOMALY   = 49.0020

EPHEMERIS_TYPE = 0
CLASSIFICATION_TYPE = U
NORAD_CAT_ID   = 67648
ELEMENT_SET_NO = 999
REV_AT_EPOCH   = 376
BSTAR          = -.74542176E-3
MEAN_MOTION_DOT = -.110038E-2
MEAN_MOTION_DDOT = 0

CCSDS_OMM_VERS = 2.0
CREATION_DATE  = 
ORIGINATOR     = 

OBJECT_NAME    = STARLINK-36342
OBJECT_ID      = 2026-022B
CENTER_NAME    = EARTH
REF_FRAME      = TEME
TIME_SYSTEM    = UTC
MEAN_ELEMENT_THEORY = SGP/SGP4

EPOCH          = 2026-02-18T06:00:02.000160
MEAN_MOTION    = 15.75217677
ECCENTRICITY   = .00012478
INCLINATION    = 97.2833
RA_OF_ASC_NODE = 82.2580
ARG_OF_PERICENTER = 95.7293
MEAN_ANOMALY   = 60.1969

EPHEMERIS_TYPE = 0
CLASSIFICATION_TYPE = U
NORAD_CAT_ID   = 67649
ELEMENT_SET_NO = 999
REV_AT_EPOCH   = 376
BSTAR          = -.44008573E-3
MEAN_MOTION_DOT = -.65349E-3
MEAN_MOTION_DDOT = 0

CCSDS_OMM_VERS = 2.0
CREATION_DATE  = 
ORIGINATOR     = 

OBJECT_NAME    = STARLINK-36703
OBJECT_ID      = 2026-022C
CENTER_NAME    = EARTH
REF_FRAME      = TEME
TIME_SYSTEM    = UTC
MEAN_ELEMENT_THEORY = SGP/SGP4

EPOCH          = 2026-02-18T06:00:02.000160
MEAN_MOTION    = 15.75231562
ECCENTRICITY   = .00014874
INCLINATION    = 97.2832
RA_OF_ASC_NODE = 82.2602
ARG_OF_PERICENTER = 107.7970
MEAN_ANOMALY   = 54.1193

EPHEMERIS_TYPE = 0
CLASSIFICATION_TYPE = U
NORAD_CAT_ID   = 67650
ELEMENT_SET_NO = 999
REV_AT_EPOCH   = 376
BSTAR          = -.71908786E-3
MEAN_MOTION_DOT = -.106257E-2
MEAN_MOTION_DDOT = 0

CCSDS_OMM_VERS = 2.0
CREATION_DATE  = 
ORIGINATOR     = 

OBJECT_NAME    = STARLINK-36696
OBJECT_ID      = 2026-022D
CENTER_NAME    = EARTH
REF_FRAME      = TEME
TIME_SYSTEM    = UTC
MEAN_ELEMENT_THEORY = SGP/SGP4

EPOCH          = 2026-02-18T06:00:02.000160
MEAN_MOTION    = 15.75203662
ECCENTRICITY   = .0001293
INCLINATION    = 97.2831
RA_OF_ASC_NODE = 82.2636
ARG_OF_PERICENTER = 85.4609
MEAN_ANOMALY   = 86.4719

EPHEMERIS_TYPE = 0
CLASSIFICATION_TYPE = U
NORAD_CAT_ID   = 67651
ELEMENT_SET_NO = 999
REV_AT_EPOCH   = 376
BSTAR          = -.53696567E-3
MEAN_MOTION_DOT = -.79527E-3
MEAN_MOTION_DDOT = 0

CCSDS_OMM_VERS = 2.0
CREATION_DATE  = 
ORIGINATOR     = 

OBJECT_NAME    = STARLINK-36699
OBJECT_ID      = 2026-022E
CENTER_NAME    = EARTH
REF_FRAME      = TEME
TIME_SYSTEM    = UTC
MEAN_ELEMENT_THEORY = SGP/SGP4

EPOCH          = 2026-02-18T06:00:02.000160
MEAN_MOTION    = 15.75198216
ECCENTRICITY   = .0001178
INCLINATION    = 97.2832
RA_OF_ASC_NODE = 82.2662
ARG_OF_PERICENTER = 83.2153
MEAN_ANOMALY   = 92.7181

EPHEMERIS_TYPE = 0
CLASSIFICATION_TYPE = U
NORAD_CAT_ID   = 67652
ELEMENT_SET_NO = 999
REV_AT_EPOCH   = 376
BSTAR          = -.42511143E-3
MEAN_MOTION_DOT = -.63093E-3
MEAN_MOTION_DDOT = 0

CCSDS_OMM_VERS = 2.0
CREATION_DATE  = 
ORIGINATOR     = 

OBJECT_NAME    = STARLINK-36694
OBJECT_ID      = 2026-022F
CENTER_NAME    = EARTH
REF_FRAME      = TEME
TIME_SYSTEM    = UTC
MEAN_ELEMENT_THEORY = SGP/SGP4

EPOCH          = 2026-02-18T06:00:02.000160
MEAN_MOTION    = 15.75207452
ECCENTRICITY   = .00010997
INCLINATION    = 97.2835
RA_OF_ASC_NODE = 82.2717
ARG_OF_PERICENTER = 102.9406
MEAN_ANOMALY   = 84.9876

EPHEMERIS_TYPE = 0
CLASSIFICATION_TYPE = U
NORAD_CAT_ID   = 67653
ELEMENT_SET_NO = 999
REV_AT_EPOCH   = 376
BSTAR          = -.45660432E-3
MEAN_MOTION_DOT = -.67747E-3
MEAN_MOTION_DDOT = 0

CCSDS_OMM_VERS = 2.0
CREATION_DATE  = 
ORIGINATOR     = 

OBJECT_NAME    = STARLINK-36620
OBJECT_ID      = 2026-022G
CENTER_NAME    = EARTH
REF_FRAME      = TEME
TIME_SYSTEM    = UTC
MEAN_ELEMENT_THEORY = SGP/SGP4

EPOCH          = 2026-02-18T06:00:02.000160
MEAN_MOTION    = 15.75214596
ECCENTRICITY   = .00010137
INCLINATION    = 97.2836
RA_OF_ASC_NODE = 82.2706
ARG_OF_PERICENTER = 99.0639
MEAN_ANOMALY   = 90.8629

EPHEMERIS_TYPE = 0
CLASSIFICATION_TYPE = U
NORAD_CAT_ID   = 67654
ELEMENT_SET_NO = 999
REV_AT_EPOCH   = 376
BSTAR          = -.66331033E-3
MEAN_MOTION_DOT = -.98041E-3
MEAN_MOTION_DDOT = 0

CCSDS_OMM_VERS = 2.0
CREATION_DATE  = 
ORIGINATOR     = 

OBJECT_NAME    = STARLINK-36720
OBJECT_ID      = 2026-022H
CENTER_NAME    = EARTH
REF_FRAME      = TEME
TIME_SYSTEM    = UTC
MEAN_ELEMENT_THEORY = SGP/SGP4

EPOCH          = 2026-02-18T06:00:02.000160
MEAN_MOTION    = 15.75228454
ECCENTRICITY   = .00013385
INCLINATION    = 97.2836
RA_OF_ASC_NODE = 82.2764
ARG_OF_PERICENTER = 113.4537
MEAN_ANOMALY   = 86.4695

EPHEMERIS_TYPE = 0
CLASSIFICATION_TYPE = U
NORAD_CAT_ID   = 67655
ELEMENT_SET_NO = 999
REV_AT_EPOCH   = 376
BSTAR          = -.66026472E-3
MEAN_MOTION_DOT = -.97658E-3
MEAN_MOTION_DDOT = 0

CCSDS_OMM_VERS = 2.0
CREATION_DATE  = 
ORIGINATOR     = 

OBJECT_NAME    = STARLINK-36688
OBJECT_ID      = 2026-022J
CENTER_NAME    = EARTH
REF_FRAME      = TEME
TIME_SYSTEM    = UTC
MEAN_ELEMENT_THEORY = SGP/SGP4

EPOCH          = 2026-02-18T06:00:02.000160
MEAN_MOTION    = 15.75107770
ECCENTRICITY   = .00020375
INCLINATION    = 97.2836
RA_OF_ASC_NODE = 82.2771
ARG_OF_PERICENTER = 89.7151
MEAN_ANOMALY   = 114.3352

EPHEMERIS_TYPE = 0
CLASSIFICATION_TYPE = U
NORAD_CAT_ID   = 67656
ELEMENT_SET_NO = 999
REV_AT_EPOCH   = 376
BSTAR          = -.59861634E-3
MEAN_MOTION_DOT = -.88196E-3
MEAN_MOTION_DDOT = 0

